[{"OBJECT_NAME":"ONEWEB-0673","OBJECT_ID":"2023-029AN","EPOCH":"2026-06-11T03:02:43.293408","MEAN_MOTION":13.19726401,"ECCENTRICITY":0.0001742,"INCLINATION":87.9172,"RA_OF_ASC_NODE":306.1747,"ARG_OF_PERICENTER":94.167,"MEAN_ANOMALY":265.9662,"EPHEMERIS_TYPE":0,"CLASSIFICATION_TYPE":"U","NORAD_CAT_ID":55832,"ELEMENT_SET_NO":999,"REV_AT_EPOCH":15810,"BSTAR":9.833300000000001e-05,"MEAN_MOTION_DOT":5.2e-07,"MEAN_MOTION_DDOT":0.0},{"OBJECT_NAME":"ONEWEB-0674","OBJECT_ID":"2023-029AP","EPOCH":"2026-06-10T20:42:25.875072","MEAN_MOTION":13.14503801,"ECCENTRICITY":0.0001795,"INCLINATION":87.8947,"RA_OF_ASC_NODE":290.9791,"ARG_OF_PERICENTER":86.7958,"MEAN_ANOMALY":273.3377,"EPHEMERIS_TYPE":0,"CLASSIFICATION_TYPE":"U","NORAD_CAT_ID":55833,"ELEMENT_SET_NO":999,"REV_AT_EPOCH":15858,"BSTAR":-0.00023173,"MEAN_MOTION_DOT":-7.3e-07,"MEAN_MOTION_DDOT":0.0},{"OBJECT_NAME":"ONEWEB-0675","OBJECT_ID":"2023-029AQ","EPOCH":"2026-06-11T03:24:19.888704","MEAN_MOTION":13.19724107,"ECCENTRICITY":0.0002042,"INCLINATION":87.9163,"RA_OF_ASC_NODE":306.1819,"ARG_OF_PERICENTER":105.28,"MEAN_ANOMALY":254.8559,"EPHEMERIS_TYPE":0,"CLASSIFICATION_TYPE":"U","NORAD_CAT_ID":55834,"ELEMENT_SET_NO":999,"REV_AT_EPOCH":15812,"BSTAR":-4.5729e-05,"MEAN_MOTION_DOT":-5e-08,"MEAN_MOTION_DDOT":0.0},{"OBJECT_NAME":"ONEWEB-0720","OBJECT_ID":"2023-029AR","EPOCH":"2026-06-11T03:12:57.034080","MEAN_MOTION":13.19724249,"ECCENTRICITY":0.0001542,"INCLINATION":87.9164,"RA_OF_ASC_NODE":306.1837,"ARG_OF_PERICENTER":100.9714,"MEAN_ANOMALY":259.1592,"EPHEMERIS_TYPE":0,"CLASSIFICATION_TYPE":"U","NORAD_CAT_ID":55835,"ELEMENT_SET_NO":999,"REV_AT_EPOCH":15804,"BSTAR":0.00017938,"MEAN_MOTION_DOT":8.5e-07,"MEAN_MOTION_DDOT":0.0},{"OBJECT_NAME":"ONEWEB-0537","OBJECT_ID":"2023-043A","EPOCH":"2026-06-11T04:34:48.570816","MEAN_MOTION":13.1659469,"ECCENTRICITY":0.0002241,"INCLINATION":87.9101,"RA_OF_ASC_NODE":229.9621,"ARG_OF_PERICENTER":100.8521,"MEAN_ANOMALY":259.2863,"EPHEMERIS_TYPE":0,"CLASSIFICATION_TYPE":"U","NORAD_CAT_ID":56046,"ELEMENT_SET_NO":999,"REV_AT_EPOCH":15817,"BSTAR":3.0636e-05,"MEAN_MOTION_DOT":2.5e-07,"MEAN_MOTION_DDOT":0.0},{"OBJECT_NAME":"ONEWEB-0538","OBJECT_ID":"2023-043B","EPOCH":"2026-06-11T04:25:41.469600","MEAN_MOTION":13.16594763,"ECCENTRICITY":0.0002062,"INCLINATION":87.9101,"RA_OF_ASC_NODE":229.9658,"ARG_OF_PERICENTER":106.0993,"MEAN_ANOMALY":254.0365,"EPHEMERIS_TYPE":0,"CLASSIFICATION_TYPE":"U","NORAD_CAT_ID":56047,"ELEMENT_SET_NO":999,"REV_AT_EPOCH":15818,"BSTAR":0.00018579000000000002,"MEAN_MOTION_DOT":8.4e-07,"MEAN_MOTION_DDOT":0.0},{"OBJECT_NAME":"ONEWEB-0546","OBJECT_ID":"2023-043C","EPOCH":"2026-06-11T04:07:27.215328","MEAN_MOTION":13.16595075,"ECCENTRICITY":0.0002733,"INCLINATION":87.9102,"RA_OF_ASC_NODE":229.9682,"ARG_OF_PERICENTER":100.71,"MEAN_ANOMALY":259.4339,"EPHEMERIS_TYPE":0,"CLASSIFICATION_TYPE":"U","NORAD_CAT_ID":56048,"ELEMENT_SET_NO":999,"REV_AT_EPOCH":15817,"BSTAR":0.00029601,"MEAN_MOTION_DOT":1.26e-06,"MEAN_MOTION_DDOT":0.0},{"OBJECT_NAME":"ONEWEB-0547","OBJECT_ID":"2023-043D","EPOCH":"2026-06-11T04:37:04.408032","MEAN_MOTION":13.21825689,"ECCENTRICITY":0.0001912,"INCLINATION":87.9259,"RA_OF_ASC_NODE":245.1666,"ARG_OF_PERICENTER":103.4592,"MEAN_ANOMALY":256.6755,"EPHEMERIS_TYPE":0,"CLASSIFICATION_TYPE":"U","NORAD_CAT_ID":56049,"ELEMENT_SET_NO":999,"REV_AT_EPOCH":15743,"BSTAR":0.00016497999999999998,"MEAN_MOTION_DOT":8.1e-07,"MEAN_MOTION_DDOT":0.0},{"OBJECT_NAME":"ONEWEB-0548","OBJECT_ID":"2023-043E","EPOCH":"2026-06-11T04:42:46.492416","MEAN_MOTION":13.16596725,"ECCENTRICITY":0.0002092,"INCLINATION":87.9099,"RA_OF_ASC_NODE":229.9597,"ARG_OF_PERICENTER":85.6045,"MEAN_ANOMALY":274.5325,"EPHEMERIS_TYPE":0,"CLASSIFICATION_TYPE":"U","NORAD_CAT_ID":56050,"ELEMENT_SET_NO":999,"REV_AT_EPOCH":15817,"BSTAR":3.0301e-05,"MEAN_MOTION_DOT":2.4e-07,"MEAN_MOTION_DDOT":0.0},{"OBJECT_NAME":"ONEWEB-0549","OBJECT_ID":"2023-043F","EPOCH":"2026-06-11T04:28:36.089184","MEAN_MOTION":13.21826131,"ECCENTRICITY":0.0002017,"INCLINATION":87.9253,"RA_OF_ASC_NODE":245.1746,"ARG_OF_PERICENTER":110.587,"MEAN_ANOMALY":249.548,"EPHEMERIS_TYPE":0,"CLASSIFICATION_TYPE":"U","NORAD_CAT_ID":56051,"ELEMENT_SET_NO":999,"REV_AT_EPOCH":15743,"BSTAR":9.0074e-05,"MEAN_MOTION_DOT":5e-07,"MEAN_MOTION_DDOT":0.0},{"OBJECT_NAME":"ONEWEB-0550","OBJECT_ID":"2023-043G","EPOCH":"2026-06-11T05:58:14.509056","MEAN_MOTION":13.21825882,"ECCENTRICITY":0.0001964,"INCLINATION":87.9255,"RA_OF_ASC_NODE":245.1595,"ARG_OF_PERICENTER":93.6863,"MEAN_ANOMALY":266.4495,"EPHEMERIS_TYPE":0,"CLASSIFICATION_TYPE":"U","NORAD_CAT_ID":56052,"ELEMENT_SET_NO":999,"REV_AT_EPOCH":15744,"BSTAR":0.00012228,"MEAN_MOTION_DOT":6.4e-07,"MEAN_MOTION_DDOT":0.0},{"OBJECT_NAME":"ONEWEB-0551","OBJECT_ID":"2023-043H","EPOCH":"2026-06-11T05:20:46.417344","MEAN_MOTION":13.15549484,"ECCENTRICITY":0.0001823,"INCLINATION":87.9001,"RA_OF_ASC_NODE":260.4145,"ARG_OF_PERICENTER":110.5632,"MEAN_ANOMALY":249.5694,"EPHEMERIS_TYPE":0,"CLASSIFICATION_TYPE":"U","NORAD_CAT_ID":56053,"ELEMENT_SET_NO":999,"REV_AT_EPOCH":15561,"BSTAR":-0.00021942999999999998,"MEAN_MOTION_DOT":-7e-07,"MEAN_MOTION_DDOT":0.0},{"OBJECT_NAME":"ONEWEB-0552","OBJECT_ID":"2023-043J","EPOCH":"2026-06-11T05:50:56.807520","MEAN_MOTION":13.21828007,"ECCENTRICITY":0.0001824,"INCLINATION":87.9252,"RA_OF_ASC_NODE":245.1662,"ARG_OF_PERICENTER":99.5495,"MEAN_ANOMALY":260.5845,"EPHEMERIS_TYPE":0,"CLASSIFICATION_TYPE":"U","NORAD_CAT_ID":56054,"ELEMENT_SET_NO":999,"REV_AT_EPOCH":15744,"BSTAR":0.00016804,"MEAN_MOTION_DOT":8.2e-07,"MEAN_MOTION_DDOT":0.0},{"OBJECT_NAME":"ONEWEB-0553","OBJECT_ID":"2023-043K","EPOCH":"2026-06-11T04:16:34.020192","MEAN_MOTION":13.16594839,"ECCENTRICITY":0.0002482,"INCLINATION":87.9098,"RA_OF_ASC_NODE":229.9675,"ARG_OF_PERICENTER":98.1851,"MEAN_ANOMALY":261.9562,"EPHEMERIS_TYPE":0,"CLASSIFICATION_TYPE":"U","NORAD_CAT_ID":56055,"ELEMENT_SET_NO":999,"REV_AT_EPOCH":15818,"BSTAR":0.00032440999999999997,"MEAN_MOTION_DOT":1.37e-06,"MEAN_MOTION_DDOT":0.0},{"OBJECT_NAME":"ONEWEB-0554","OBJECT_ID":"2023-043L","EPOCH":"2026-06-11T03:58:19.336512","MEAN_MOTION":13.16586398,"ECCENTRICITY":0.0002066,"INCLINATION":87.9096,"RA_OF_ASC_NODE":229.9791,"ARG_OF_PERICENTER":83.7338,"MEAN_ANOMALY":276.4029,"EPHEMERIS_TYPE":0,"CLASSIFICATION_TYPE":"U","NORAD_CAT_ID":56056,"ELEMENT_SET_NO":999,"REV_AT_EPOCH":15816,"BSTAR":0.00047919,"MEAN_MOTION_DOT":1.96e-06,"MEAN_MOTION_DDOT":0.0},{"OBJECT_NAME":"ONEWEB-0555","OBJECT_ID":"2023-043M","EPOCH":"2026-06-11T04:53:01.626720","MEAN_MOTION":13.16597236,"ECCENTRICITY":0.0002661,"INCLINATION":87.9103,"RA_OF_ASC_NODE":229.9593,"ARG_OF_PERICENTER":98.6448,"MEAN_ANOMALY":261.4984,"EPHEMERIS_TYPE":0,"CLASSIFICATION_TYPE":"U","NORAD_CAT_ID":56057,"ELEMENT_SET_NO":999,"REV_AT_EPOCH":15817,"BSTAR":4.7538000000000005e-05,"MEAN_MOTION_DOT":3.1e-07,"MEAN_MOTION_DDOT":0.0},{"OBJECT_NAME":"ONEWEB-0557","OBJECT_ID":"2023-043N","EPOCH":"2026-06-11T05:13:33.576672","MEAN_MOTION":13.16594385,"ECCENTRICITY":0.0002964,"INCLINATION":87.91,"RA_OF_ASC_NODE":229.967,"ARG_OF_PERICENTER":77.5731,"MEAN_ANOMALY":282.5732,"EPHEMERIS_TYPE":0,"CLASSIFICATION_TYPE":"U","NORAD_CAT_ID":56058,"ELEMENT_SET_NO":999,"REV_AT_EPOCH":15817,"BSTAR":-2.0864e-06,"MEAN_MOTION_DOT":1.2e-07,"MEAN_MOTION_DDOT":0.0},{"OBJECT_NAME":"ONEWEB-0558","OBJECT_ID":"2023-043P","EPOCH":"2026-06-11T05:41:15.325152","MEAN_MOTION":13.21827506,"ECCENTRICITY":0.0002078,"INCLINATION":87.9254,"RA_OF_ASC_NODE":245.1622,"ARG_OF_PERICENTER":108.8365,"MEAN_ANOMALY":251.2995,"EPHEMERIS_TYPE":0,"CLASSIFICATION_TYPE":"U","NORAD_CAT_ID":56059,"ELEMENT_SET_NO":999,"REV_AT_EPOCH":15745,"BSTAR":7.0029e-05,"MEAN_MOTION_DOT":4.2e-07,"MEAN_MOTION_DDOT":0.0},{"OBJECT_NAME":"ONEWEB-0559","OBJECT_ID":"2023-043Q","EPOCH":"2026-06-11T05:24:17.419968","MEAN_MOTION":13.21827411,"ECCENTRICITY":0.0001842,"INCLINATION":87.9257,"RA_OF_ASC_NODE":245.1595,"ARG_OF_PERICENTER":104.0654,"MEAN_ANOMALY":256.0685,"EPHEMERIS_TYPE":0,"CLASSIFICATION_TYPE":"U","NORAD_CAT_ID":56060,"ELEMENT_SET_NO":999,"REV_AT_EPOCH":15746,"BSTAR":0.00018519,"MEAN_MOTION_DOT":8.9e-07,"MEAN_MOTION_DDOT":0.0},{"OBJECT_NAME":"ONEWEB-0566","OBJECT_ID":"2023-043R","EPOCH":"2026-06-11T05:14:37.643136","MEAN_MOTION":13.21826752,"ECCENTRICITY":0.0001787,"INCLINATION":87.9255,"RA_OF_ASC_NODE":245.1591,"ARG_OF_PERICENTER":107.3751,"MEAN_ANOMALY":252.7579,"EPHEMERIS_TYPE":0,"CLASSIFICATION_TYPE":"U","NORAD_CAT_ID":56061,"ELEMENT_SET_NO":999,"REV_AT_EPOCH":15744,"BSTAR":7.4899e-05,"MEAN_MOTION_DOT":4.4e-07,"MEAN_MOTION_DDOT":0.0},{"OBJECT_NAME":"ONEWEB-0568","OBJECT_ID":"2023-043S","EPOCH":"2026-06-11T05:38:38.907456","MEAN_MOTION":13.16594027,"ECCENTRICITY":0.0002348,"INCLINATION":87.9097,"RA_OF_ASC_NODE":229.9533,"ARG_OF_PERICENTER":98.2569,"MEAN_ANOMALY":261.8828,"EPHEMERIS_TYPE":0,"CLASSIFICATION_TYPE":"U","NORAD_CAT_ID":56062,"ELEMENT_SET_NO":999,"REV_AT_EPOCH":15819,"BSTAR":2.8854999999999997e-05,"MEAN_MOTION_DOT":2.4e-07,"MEAN_MOTION_DDOT":0.0},{"OBJECT_NAME":"ONEWEB-0574","OBJECT_ID":"2023-043T","EPOCH":"2026-06-11T05:04:55.092000","MEAN_MOTION":13.21827548,"ECCENTRICITY":0.0002117,"INCLINATION":87.9266,"RA_OF_ASC_NODE":245.1627,"ARG_OF_PERICENTER":94.1773,"MEAN_ANOMALY":265.9603,"EPHEMERIS_TYPE":0,"CLASSIFICATION_TYPE":"U","NORAD_CAT_ID":56063,"ELEMENT_SET_NO":999,"REV_AT_EPOCH":15748,"BSTAR":-3.2145000000000005e-05,"MEAN_MOTION_DOT":0.0,"MEAN_MOTION_DDOT":0.0},{"OBJECT_NAME":"ONEWEB-0575","OBJECT_ID":"2023-043U","EPOCH":"2026-06-11T05:29:31.775136","MEAN_MOTION":13.16594006,"ECCENTRICITY":0.0002355,"INCLINATION":87.9097,"RA_OF_ASC_NODE":229.9509,"ARG_OF_PERICENTER":90.2822,"MEAN_ANOMALY":269.8579,"EPHEMERIS_TYPE":0,"CLASSIFICATION_TYPE":"U","NORAD_CAT_ID":56064,"ELEMENT_SET_NO":999,"REV_AT_EPOCH":15818,"BSTAR":-3.4701e-05,"MEAN_MOTION_DOT":0.0,"MEAN_MOTION_DDOT":0.0}]